0 COSMOS 2251 DEB
1 34784U 93036AAM 13281.49333675  .00001161  00000-0  31463-3 0  8192
2 34784 074.0117 078.0174 0063001 247.2241 168.6050 14.47694224240473
0 COSMOS 2251 DEB
1 34784U 93036AAM 13283.42343044  .00001303  00000-0  35196-3 0  8205
2 34784 074.0120 074.4006 0062960 243.2226 147.6100 14.47704096240756
0 COSMOS 2251 DEB
1 34784U 93036AAM 13285.77997865  .00001372  00000-0  37028-3 0  8214
2 34784 074.0124 069.9842 0062875 238.3468 189.2136 14.47709005241099
0 COSMOS 2251 DEB
1 34784U 93036AAM 13286.82772811  .00001573  00000-0  42324-3 0  8222
2 34784 074.0126 068.0208 0062885 236.1838 249.7749 14.47711426241244
0 COSMOS 2251 DEB
1 34784U 93036AAM 13288.47566060  .00002195  00000-0  58739-3 0  8231
2 34784 074.0132 064.9332 0062846 232.7804 198.3363 14.47719183241481
0 COSMOS 2251 DEB
1 34784U 93036AAM 13292.07728307  .00001963  00000-0  52605-3 0  8245
2 34784 074.0134 058.1844 0062720 225.3298 249.1405 14.47732677242006
0 COSMOS 2251 DEB
1 34784U 93036AAM 13294.76282823  .00002322  00000-0  62088-3 0  8258
2 34784 074.0136 053.1526 0062556 219.6994 205.7626 14.47744946242393
